{"fetched_at":"2026-07-17T17:38:23.882Z","source":"https://celestrak.org/NORAD/elements/gp.php?NAME=KINEIS&FORMAT=JSON","constellation":"kineis","records":[{"OBJECT_NAME":"KINEIS-1B","OBJECT_ID":"2024-114A","EPOCH":"2026-07-17T06:14:09.644640","CLASSIFICATION_TYPE":"U","MEAN_MOTION":14.80668551,"ECCENTRICITY":0.00028036,"INCLINATION":97.9828,"RA_OF_ASC_NODE":222.3017,"ARG_OF_PERICENTER":33.8125,"MEAN_ANOMALY":326.3266,"EPHEMERIS_TYPE":0,"NORAD_CAT_ID":60079,"ELEMENT_SET_NO":999,"REV_AT_EPOCH":11185,"BSTAR":0.000047639653,"MEAN_MOTION_DOT":0.00000313,"MEAN_MOTION_DDOT":0},{"OBJECT_NAME":"KINEIS-1C","OBJECT_ID":"2024-114C","EPOCH":"2026-07-17T07:02:35.414880","CLASSIFICATION_TYPE":"U","MEAN_MOTION":14.80670447,"ECCENTRICITY":0.00025845,"INCLINATION":97.9842,"RA_OF_ASC_NODE":222.191,"ARG_OF_PERICENTER":92.1271,"MEAN_ANOMALY":268.0237,"EPHEMERIS_TYPE":0,"NORAD_CAT_ID":60081,"ELEMENT_SET_NO":999,"REV_AT_EPOCH":11183,"BSTAR":0.000046882458,"MEAN_MOTION_DOT":0.00000308,"MEAN_MOTION_DDOT":0},{"OBJECT_NAME":"KINEIS-1D","OBJECT_ID":"2024-114D","EPOCH":"2026-07-17T08:09:18.967968","CLASSIFICATION_TYPE":"U","MEAN_MOTION":14.76364007,"ECCENTRICITY":0.00029747,"INCLINATION":97.9879,"RA_OF_ASC_NODE":218.1467,"ARG_OF_PERICENTER":94.871,"MEAN_ANOMALY":265.2839,"EPHEMERIS_TYPE":0,"NORAD_CAT_ID":60082,"ELEMENT_SET_NO":999,"REV_AT_EPOCH":11157,"BSTAR":0.000047108304,"MEAN_MOTION_DOT":0.00000276,"MEAN_MOTION_DDOT":0},{"OBJECT_NAME":"KINEIS-1E","OBJECT_ID":"2024-114E","EPOCH":"2026-07-17T07:28:12.449280","CLASSIFICATION_TYPE":"U","MEAN_MOTION":14.8069598,"ECCENTRICITY":0.00041791,"INCLINATION":97.8944,"RA_OF_ASC_NODE":221.2546,"ARG_OF_PERICENTER":105.2951,"MEAN_ANOMALY":254.8724,"EPHEMERIS_TYPE":0,"NORAD_CAT_ID":60083,"ELEMENT_SET_NO":999,"REV_AT_EPOCH":11184,"BSTAR":0.000053878227,"MEAN_MOTION_DOT":0.00000363,"MEAN_MOTION_DDOT":0},{"OBJECT_NAME":"KINEIS-1A","OBJECT_ID":"2024-114F","EPOCH":"2026-07-17T06:39:04.433760","CLASSIFICATION_TYPE":"U","MEAN_MOTION":14.80683885,"ECCENTRICITY":0.00052926,"INCLINATION":97.8918,"RA_OF_ASC_NODE":221.314,"ARG_OF_PERICENTER":57.4865,"MEAN_ANOMALY":302.6858,"EPHEMERIS_TYPE":0,"NORAD_CAT_ID":60084,"ELEMENT_SET_NO":999,"REV_AT_EPOCH":11184,"BSTAR":0.000047433876,"MEAN_MOTION_DOT":0.00000313,"MEAN_MOTION_DDOT":0},{"OBJECT_NAME":"KINEIS-3C","OBJECT_ID":"2024-172A","EPOCH":"2026-07-17T04:18:35.311968","CLASSIFICATION_TYPE":"U","MEAN_MOTION":14.72293333,"ECCENTRICITY":0.00026227,"INCLINATION":98.0435,"RA_OF_ASC_NODE":287.7606,"ARG_OF_PERICENTER":79.5474,"MEAN_ANOMALY":280.6029,"EPHEMERIS_TYPE":0,"NORAD_CAT_ID":61220,"ELEMENT_SET_NO":999,"REV_AT_EPOCH":9748,"BSTAR":0.00014225753,"MEAN_MOTION_DOT":0.00000849,"MEAN_MOTION_DDOT":0},{"OBJECT_NAME":"KINEIS-3D","OBJECT_ID":"2024-172B","EPOCH":"2026-07-16T19:59:34.624896","CLASSIFICATION_TYPE":"U","MEAN_MOTION":14.7228991,"ECCENTRICITY":0.00024156,"INCLINATION":98.0432,"RA_OF_ASC_NODE":287.4281,"ARG_OF_PERICENTER":80.0884,"MEAN_ANOMALY":280.0596,"EPHEMERIS_TYPE":0,"NORAD_CAT_ID":61221,"ELEMENT_SET_NO":999,"REV_AT_EPOCH":9771,"BSTAR":0.000086239299,"MEAN_MOTION_DOT":0.00000495,"MEAN_MOTION_DDOT":0},{"OBJECT_NAME":"KINEIS-3E","OBJECT_ID":"2024-172C","EPOCH":"2026-07-17T05:22:11.449632","CLASSIFICATION_TYPE":"U","MEAN_MOTION":14.72280036,"ECCENTRICITY":0.00017225,"INCLINATION":98.0429,"RA_OF_ASC_NODE":287.7957,"ARG_OF_PERICENTER":87.7062,"MEAN_ANOMALY":272.4343,"EPHEMERIS_TYPE":0,"NORAD_CAT_ID":61222,"ELEMENT_SET_NO":999,"REV_AT_EPOCH":9777,"BSTAR":0.00013984407,"MEAN_MOTION_DOT":0.00000834,"MEAN_MOTION_DDOT":0},{"OBJECT_NAME":"KINEIS-3A","OBJECT_ID":"2024-172D","EPOCH":"2026-07-17T04:58:17.553504","CLASSIFICATION_TYPE":"U","MEAN_MOTION":14.72313279,"ECCENTRICITY":0.00020481,"INCLINATION":98.0425,"RA_OF_ASC_NODE":287.8774,"ARG_OF_PERICENTER":38.2434,"MEAN_ANOMALY":321.8918,"EPHEMERIS_TYPE":0,"NORAD_CAT_ID":61223,"ELEMENT_SET_NO":999,"REV_AT_EPOCH":9719,"BSTAR":0.00013778165,"MEAN_MOTION_DOT":0.00000821,"MEAN_MOTION_DDOT":0},{"OBJECT_NAME":"KINEIS-3B","OBJECT_ID":"2024-172E","EPOCH":"2026-07-17T04:33:18.103104","CLASSIFICATION_TYPE":"U","MEAN_MOTION":14.72299468,"ECCENTRICITY":0.00014697,"INCLINATION":98.042,"RA_OF_ASC_NODE":287.8823,"ARG_OF_PERICENTER":23.8817,"MEAN_ANOMALY":336.2459,"EPHEMERIS_TYPE":0,"NORAD_CAT_ID":61224,"ELEMENT_SET_NO":999,"REV_AT_EPOCH":9776,"BSTAR":0.00013744124,"MEAN_MOTION_DOT":0.00000819,"MEAN_MOTION_DDOT":0},{"OBJECT_NAME":"KINEIS-5C","OBJECT_ID":"2024-219A","EPOCH":"2026-07-17T07:16:10.885728","CLASSIFICATION_TYPE":"U","MEAN_MOTION":14.72316048,"ECCENTRICITY":0.00043247,"INCLINATION":97.907,"RA_OF_ASC_NODE":356.3233,"ARG_OF_PERICENTER":166.8917,"MEAN_ANOMALY":193.2403,"EPHEMERIS_TYPE":0,"NORAD_CAT_ID":62081,"ELEMENT_SET_NO":999,"REV_AT_EPOCH":8818,"BSTAR":0.000050892082,"MEAN_MOTION_DOT":0.00000273,"MEAN_MOTION_DDOT":0},{"OBJECT_NAME":"KINEIS-5D","OBJECT_ID":"2024-219B","EPOCH":"2026-07-17T06:16:08.296896","CLASSIFICATION_TYPE":"U","MEAN_MOTION":14.72495504,"ECCENTRICITY":0.00054475,"INCLINATION":97.9182,"RA_OF_ASC_NODE":356.354,"ARG_OF_PERICENTER":161.5901,"MEAN_ANOMALY":198.5505,"EPHEMERIS_TYPE":0,"NORAD_CAT_ID":62082,"ELEMENT_SET_NO":999,"REV_AT_EPOCH":8818,"BSTAR":0.000072413776,"MEAN_MOTION_DOT":0.00000411,"MEAN_MOTION_DDOT":0},{"OBJECT_NAME":"KINEIS-5E","OBJECT_ID":"2024-219C","EPOCH":"2026-07-17T06:42:12.193056","CLASSIFICATION_TYPE":"U","MEAN_MOTION":14.7230048,"ECCENTRICITY":0.00069268,"INCLINATION":97.9026,"RA_OF_ASC_NODE":356.3935,"ARG_OF_PERICENTER":158.4036,"MEAN_ANOMALY":201.7465,"EPHEMERIS_TYPE":0,"NORAD_CAT_ID":62083,"ELEMENT_SET_NO":999,"REV_AT_EPOCH":8819,"BSTAR":0.000047856865,"MEAN_MOTION_DOT":0.00000254,"MEAN_MOTION_DDOT":0},{"OBJECT_NAME":"KINEIS-5A","OBJECT_ID":"2024-219D","EPOCH":"2026-07-17T04:33:01.370880","CLASSIFICATION_TYPE":"U","MEAN_MOTION":14.72264163,"ECCENTRICITY":0.00039255,"INCLINATION":97.8967,"RA_OF_ASC_NODE":356.5843,"ARG_OF_PERICENTER":192.3972,"MEAN_ANOMALY":167.714,"EPHEMERIS_TYPE":0,"NORAD_CAT_ID":62084,"ELEMENT_SET_NO":999,"REV_AT_EPOCH":8818,"BSTAR":0.000059959588,"MEAN_MOTION_DOT":0.0000033,"MEAN_MOTION_DDOT":0},{"OBJECT_NAME":"KINEIS-5B","OBJECT_ID":"2024-219E","EPOCH":"2026-07-17T07:15:03.974976","CLASSIFICATION_TYPE":"U","MEAN_MOTION":14.78387789,"ECCENTRICITY":0.00026177,"INCLINATION":98.0092,"RA_OF_ASC_NODE":1.9665,"ARG_OF_PERICENTER":141.2821,"MEAN_ANOMALY":218.8578,"EPHEMERIS_TYPE":0,"NORAD_CAT_ID":62085,"ELEMENT_SET_NO":999,"REV_AT_EPOCH":8845,"BSTAR":0.000072370468,"MEAN_MOTION_DOT":0.00000475,"MEAN_MOTION_DDOT":0},{"OBJECT_NAME":"KINEIS-2C","OBJECT_ID":"2025-028B","EPOCH":"2026-07-17T03:12:39.224448","CLASSIFICATION_TYPE":"U","MEAN_MOTION":14.73432272,"ECCENTRICITY":0.0004384,"INCLINATION":98.1229,"RA_OF_ASC_NODE":252.5591,"ARG_OF_PERICENTER":154.1944,"MEAN_ANOMALY":205.9483,"EPHEMERIS_TYPE":0,"NORAD_CAT_ID":62929,"ELEMENT_SET_NO":999,"REV_AT_EPOCH":7702,"BSTAR":0.00011858409,"MEAN_MOTION_DOT":0.00000718,"MEAN_MOTION_DDOT":0}]}
