KINEIS-1B               
1 60079U 24114A   26198.25983385  .00000313  00000+0  47640-4 0  9994
2 60079  97.9828 222.3017 0002803  33.8125 326.3266 14.80668551111857
KINEIS-1C               
1 60081U 24114C   26198.29346545  .00000308  00000+0  46882-4 0  9993
2 60081  97.9842 222.1910 0002584  92.1271 268.0237 14.80670447111837
KINEIS-1D               
1 60082U 24114D   26198.33980287  .00000276  00000+0  47108-4 0  9992
2 60082  97.9879 218.1467 0002974  94.8710 265.2839 14.76364007111575
KINEIS-1E               
1 60083U 24114E   26198.31125520  .00000363  00000+0  53878-4 0  9990
2 60083  97.8944 221.2546 0004179 105.2951 254.8724 14.80695980111843
KINEIS-1A               
1 60084U 24114F   26198.27713465  .00000313  00000+0  47434-4 0  9993
2 60084  97.8918 221.3140 0005292  57.4865 302.6858 14.80683885111846
KINEIS-3C               
1 61220U 24172A   26198.17957537  .00000849  00000+0  14226-3 0  9995
2 61220  98.0435 287.7606 0002622  79.5474 280.6029 14.72293333 97488
KINEIS-3D               
1 61221U 24172B   26197.83303964  .00000495  00000+0  86239-4 0  9998
2 61221  98.0432 287.4281 0002415  80.0884 280.0596 14.72289910 97719
KINEIS-3E               
1 61222U 24172C   26198.22374363  .00000834  00000+0  13984-3 0  9997
2 61222  98.0429 287.7957 0001722  87.7062 272.4343 14.72280036 97772
KINEIS-3A               
1 61223U 24172D   26198.20714761  .00000821  00000+0  13778-3 0  9993
2 61223  98.0425 287.8774 0002048  38.2434 321.8918 14.72313279 97192
KINEIS-3B               
1 61224U 24172E   26198.18979286  .00000819  00000+0  13744-3 0  9996
2 61224  98.0420 287.8823 0001469  23.8817 336.2459 14.72299468 97760
KINEIS-5C               
1 62081U 24219A   26198.30290377  .00000273  00000+0  50892-4 0  9991
2 62081  97.9070 356.3233 0004324 166.8917 193.2403 14.72316048 88180
KINEIS-5D               
1 62082U 24219B   26198.26120714  .00000411  00000+0  72414-4 0  9992
2 62082  97.9182 356.3540 0005447 161.5901 198.5505 14.72495504 88184
KINEIS-5E               
1 62083U 24219C   26198.27930779  .00000254  00000+0  47857-4 0  9992
2 62083  97.9026 356.3935 0006926 158.4036 201.7465 14.72300480 88198
KINEIS-5A               
1 62084U 24219D   26198.18959920  .00000330  00000+0  59960-4 0  9995
2 62084  97.8967 356.5843 0003925 192.3972 167.7140 14.72264163 88181
KINEIS-5B               
1 62085U 24219E   26198.30212934  .00000475  00000+0  72370-4 0  9997
2 62085  98.0092   1.9665 0002617 141.2821 218.8578 14.78387789 88459
KINEIS-2C               
1 62929U 25028B   26198.13378732  .00000718  00000+0  11858-3 0  9996
2 62929  98.1229 252.5591 0004384 154.1944 205.9483 14.73432272 77029
